EUTELSAT QUANTUM        
1 49056U 21069B   25360.16781007  .00000148  00000+0  00000+0 0  9999
2 49056   0.0134  25.5084 0003594 258.1659 279.3536  1.00271273 16190
EUTELSAT KONNECT VHTS   
1 53765U 22110A   25360.36919837  .00000038  00000+0  00000+0 0  9993
2 53765   0.0580  98.5588 0002544 155.2379 336.9389  1.00265206  5098
EUTELSAT HOTBIRD 13F    
1 54048U 22134A   25358.97635066  .00000108  00000+0  00000+0 0  9995
2 54048   0.0545 289.4002 0002211  71.8170  97.0057  1.00270775 11630
EUTELSAT HOTBIRD 13G    
1 54225U 22146A   25358.01989183  .00000108  00000+0  00000+0 0  9992
2 54225   0.0535 227.8066 0001713 307.3490 297.8001  1.00268836  5716
EUTELSAT 10B            
1 54259U 22157A   25359.91780723  .00000090  00000+0  00000+0 0  9990
2 54259   0.0617  95.4372 0000664  60.6723 278.9927  1.00270219 11289
EUTELSAT 36D            
1 59346U 24059A   25360.12223476  .00000177  00000+0  00000+0 0  9993
2 59346   0.0182  36.9532 0000492  25.8871 111.9168  1.00263096  6419
